[
    {
        "Altitude(m)": 604969.089219238,
        "Argument of Periapsis(deg)": 0.0,
        "Eccentricity": 0.0,
        "Inclination(deg)": 60.0,
        "Latitude(deg)": -0.0927298913220536,
        "Longitude(deg)": -115.02247246625842,
        "Mean Anomaly(deg)": 0.0,
        "RAAN(deg)": 345.0,
        "Satellite Name": "Test1 1518",
        "Satellite Number": 1518,
        "Semi-Major Axis(m)": 6980739.136638005,
        "Time(s)": 0
    },
    {
        "Altitude(m)": 604900.0282311817,
        "Argument of Periapsis(deg)": 0.00010418945913296404,
        "Eccentricity": 0.0,
        "Inclination(deg)": 60.0,
        "Latitude(deg)": 0.44769579626797545,
        "Longitude(deg)": -114.75434902444465,
        "Mean Anomaly(deg)": 0.620106145461853,
        "RAAN(deg)": 344.99957995086027,
        "Satellite Name": "Test1 1518",
        "Satellite Number": 1518,
        "Semi-Major Axis(m)": 6980739.136638005,
        "Time(s)": 10
    }
]